{"type": "FeatureCollection", "features": [ {"type": "Feature", "properties": {"norad_id": 35480, "name": "IRIDIUM 33 DEB", "group": "iridium-33-debris", "lat": 68.72272447690872, "lon": -164.00054952281397, "alt_km": 708.5601949546763, "timestamp": "2025-12-11T13:55:02.551238+00:00", "meta": {"OBJECT_NAME": "IRIDIUM 33 DEB", "OBJECT_ID": "1997-051QA", "EPOCH": "2025-12-09T19:59:43.135296", "MEAN_MOTION": 14.49744632, "ECCENTRICITY": 0.00159269, "INCLINATION": 86.357, "RA_OF_ASC_NODE": 26.1722, "ARG_OF_PERICENTER": 113.2937, "MEAN_ANOMALY": 246.9945, "EPHEMERIS_TYPE": 0, "CLASSIFICATION_TYPE": "U", "NORAD_CAT_ID": 35480, "ELEMENT_SET_NO": 999, "REV_AT_EPOCH": 86989, "BSTAR": 0.0009193458, "MEAN_MOTION_DOT": 3.565e-05, "MEAN_MOTION_DDOT": 0}, "tle": {"line1": "1 35480U 97051QA  25343.83313814  .00003565  00000+0  91935-3 0  9998", "line2": "2 35480  86.3570  26.1722 0015926 113.2937 246.9945 14.49744632869893"}}, "geometry": {"type": "Point", "coordinates": [-164.00054952281397, 68.72272447690872]}}, {"type": "Feature", "properties": {"norad_id": 35484, "name": "IRIDIUM 33 DEB", "group": "iridium-33-debris", "lat": 71.65677502655919, "lon": 4.35663874305863, "alt_km": 555.5992937661431, "timestamp": "2025-12-11T13:55:02.551248+00:00", "meta": {"OBJECT_NAME": "IRIDIUM 33 DEB", "OBJECT_ID": "1997-051QE", "EPOCH": "2025-12-11T07:11:11.450112", "MEAN_MOTION": 14.98503136, "ECCENTRICITY": 0.00234835, "INCLINATION": 86.3602, "RA_OF_ASC_NODE": 353.4188, "ARG_OF_PERICENTER": 129.6902, "MEAN_ANOMALY": 230.6406, "EPHEMERIS_TYPE": 0, "CLASSIFICATION_TYPE": "U", "NORAD_CAT_ID": 35484, "ELEMENT_SET_NO": 999, "REV_AT_EPOCH": 61994, "BSTAR": 0.0054521834, "MEAN_MOTION_DOT": 0.00066108, "MEAN_MOTION_DDOT": 0}, "tle": {"line1": "1 35484U 97051QE  25345.29943808  .00066108  00000+0  54522-2 0  9998", "line2": "2 35484  86.3602 353.4188 0023483 129.6902 230.6406 14.98503136619942"}}, "geometry": {"type": "Point", "coordinates": [4.35663874305863, 71.65677502655919]}}, {"type": "Feature", "properties": {"norad_id": 35488, "name": "IRIDIUM 33 DEB", "group": "iridium-33-debris", "lat": -66.13162142221779, "lon": 129.76593696481007, "alt_km": 646.987395660959, "timestamp": "2025-12-11T13:55:02.551258+00:00", "meta": {"OBJECT_NAME": "IRIDIUM 33 DEB", "OBJECT_ID": "1997-051QJ", "EPOCH": "2025-12-10T07:39:38.233728", "MEAN_MOTION": 14.82954928, "ECCENTRICITY": 0.00301497, "INCLINATION": 86.3246, "RA_OF_ASC_NODE": 301.994, "ARG_OF_PERICENTER": 50.6144, "MEAN_ANOMALY": 309.7742, "EPHEMERIS_TYPE": 0, "CLASSIFICATION_TYPE": "U", "NORAD_CAT_ID": 35488, "ELEMENT_SET_NO": 999, "REV_AT_EPOCH": 88230, "BSTAR": 0.0023681949, "MEAN_MOTION_DOT": 0.0001943, "MEAN_MOTION_DDOT": 0}, "tle": {"line1": "1 35488U 97051QJ  25344.31919252  .00019430  00000+0  23682-2 0  9999", "line2": "2 35488  86.3246 301.9940 0030149  50.6144 309.7742 14.82954928882307"}}, "geometry": {"type": "Point", "coordinates": [129.76593696481007, -66.13162142221779]}}, {"type": "Feature", "properties": {"norad_id": 35616, "name": "IRIDIUM 33 DEB", "group": "iridium-33-debris", "lat": 50.532075450593965, "lon": -9.265515621998315, "alt_km": 622.2866157148419, "timestamp": "2025-12-11T13:55:02.551268+00:00", "meta": {"OBJECT_NAME": "IRIDIUM 33 DEB", "OBJECT_ID": "1997-051QN", "EPOCH": "2025-12-09T17:55:38.523360", "MEAN_MOTION": 14.816872, "ECCENTRICITY": 0.00097125, "INCLINATION": 86.355, "RA_OF_ASC_NODE": 347.1304, "ARG_OF_PERICENTER": 173.7748, "MEAN_ANOMALY": 186.3597, "EPHEMERIS_TYPE": 0, "CLASSIFICATION_TYPE": "U", "NORAD_CAT_ID": 35616, "ELEMENT_SET_NO": 999, "REV_AT_EPOCH": 87530, "BSTAR": 0.0025734917, "MEAN_MOTION_DOT": 0.00020338, "MEAN_MOTION_DDOT": 0}, "tle": {"line1": "1 35616U 97051QN  25343.74697365  .00020338  00000+0  25735-2 0  9996", "line2": "2 35616  86.3550 347.1304 0009712 173.7748 186.3597 14.81687200875307"}}, "geometry": {"type": "Point", "coordinates": [-9.265515621998315, 50.532075450593965]}}, {"type": "Feature", "properties": {"norad_id": 35618, "name": "IRIDIUM 33 DEB", "group": "iridium-33-debris", "lat": -60.37612455993349, "lon": -12.452385059550783, "alt_km": 723.7510421170073, "timestamp": "2025-12-11T13:55:02.551279+00:00", "meta": {"OBJECT_NAME": "IRIDIUM 33 DEB", "OBJECT_ID": "1997-051QQ", "EPOCH": "2025-12-05T07:42:53.148672", "MEAN_MOTION": 14.52258119, "ECCENTRICITY": 0.00302089, "INCLINATION": 86.3407, "RA_OF_ASC_NODE": 356.7447, "ARG_OF_PERICENTER": 46.3254, "MEAN_ANOMALY": 314.0448, "EPHEMERIS_TYPE": 0, "CLASSIFICATION_TYPE": "U", "NORAD_CAT_ID": 35618, "ELEMENT_SET_NO": 999, "REV_AT_EPOCH": 65286, "BSTAR": 0.00091388234, "MEAN_MOTION_DOT": 3.753e-05, "MEAN_MOTION_DDOT": 0}, "tle": {"line1": "1 35618U 97051QQ  25339.32144848  .00003753  00000+0  91388-3 0  9990", "line2": "2 35618  86.3407 356.7447 0030208  46.3254 314.0448 14.52258119652865"}}, "geometry": {"type": "Point", "coordinates": [-12.452385059550783, -60.37612455993349]}}, {"type": "Feature", "properties": {"norad_id": 35620, "name": "IRIDIUM 33 DEB", "group": "iridium-33-debris", "lat": -16.72510346215785, "lon": -143.14467995318108, "alt_km": 751.9686505293239, "timestamp": "2025-12-11T13:55:02.551290+00:00", "meta": {"OBJECT_NAME": "IRIDIUM 33 DEB", "OBJECT_ID": "1997-051QS", "EPOCH": "2025-12-09T21:54:44.064864", "MEAN_MOTION": 14.37894536, "ECCENTRICITY": 0.01422721, "INCLINATION": 86.3878, "RA_OF_ASC_NODE": 218.6459, "ARG_OF_PERICENTER": 268.3253, "MEAN_ANOMALY": 90.1645, "EPHEMERIS_TYPE": 0, "CLASSIFICATION_TYPE": "U", "NORAD_CAT_ID": 35620, "ELEMENT_SET_NO": 999, "REV_AT_EPOCH": 59925, "BSTAR": 0.0077821175, "MEAN_MOTION_DOT": 0.00026494, "MEAN_MOTION_DDOT": 0}, "tle": {"line1": "1 35620U 97051QS  25343.91301001  .00026494  00000+0  77821-2 0  9991", "line2": "2 35620  86.3878 218.6459 0142272 268.3253  90.1645 14.37894536599255"}}, "geometry": {"type": "Point", "coordinates": [-143.14467995318108, -16.72510346215785]}}, {"type": "Feature", "properties": {"norad_id": 35622, "name": "IRIDIUM 33 DEB", "group": "iridium-33-debris", "lat": 30.019254611082303, "lon": 81.97555827361542, "alt_km": 556.1795234422079, "timestamp": "2025-12-11T13:55:02.551300+00:00", "meta": {"OBJECT_NAME": "IRIDIUM 33 DEB", "OBJECT_ID": "1997-051QU", "EPOCH": "2025-12-11T05:58:54.175296", "MEAN_MOTION": 15.04396192, "ECCENTRICITY": 0.00064798, "INCLINATION": 86.2027, "RA_OF_ASC_NODE": 264.3377, "ARG_OF_PERICENTER": 337.0298, "MEAN_ANOMALY": 183.1653, "EPHEMERIS_TYPE": 0, "CLASSIFICATION_TYPE": "U", "NORAD_CAT_ID": 35622, "ELEMENT_SET_NO": 999, "REV_AT_EPOCH": 87337, "BSTAR": 0.0092750777, "MEAN_MOTION_DOT": 0.00131767, "MEAN_MOTION_DDOT": 0}, "tle": {"line1": "1 35622U 97051QU  25345.24923814  .00131767  00000+0  92751-2 0  9992", "line2": "2 35622  86.2027 264.3377 0006479 337.0298 183.1653 15.04396192873370"}}, "geometry": {"type": "Point", "coordinates": [81.97555827361542, 30.019254611082303]}}, {"type": "Feature", "properties": {"norad_id": 35628, "name": "IRIDIUM 33 DEB", "group": "iridium-33-debris", "lat": 46.44443840056493, "lon": -174.24807408046618, "alt_km": 671.337287001701, "timestamp": "2025-12-11T13:55:02.551311+00:00", "meta": {"OBJECT_NAME": "IRIDIUM 33 DEB", "OBJECT_ID": "1997-051RA", "EPOCH": "2025-12-08T19:51:11.189376", "MEAN_MOTION": 14.67493768, "ECCENTRICITY": 0.00109309, "INCLINATION": 86.3576, "RA_OF_ASC_NODE": 10.8203, "ARG_OF_PERICENTER": 356.3974, "MEAN_ANOMALY": 3.7159, "EPHEMERIS_TYPE": 0, "CLASSIFICATION_TYPE": "U", "NORAD_CAT_ID": 35628, "ELEMENT_SET_NO": 999, "REV_AT_EPOCH": 86389, "BSTAR": 0.0020097942, "MEAN_MOTION_DOT": 0.00011424, "MEAN_MOTION_DDOT": 0}, "tle": {"line1": "1 35628U 97051RA  25342.82721284  .00011424  00000+0  20098-2 0  9998", "line2": "2 35628  86.3576  10.8203 0010930 356.3974   3.7159 14.67493768863899"}}, "geometry": {"type": "Point", "coordinates": [-174.24807408046618, 46.44443840056493]}}, {"type": "Feature", "properties": {"norad_id": 35631, "name": "IRIDIUM 33 DEB", "group": "iridium-33-debris", "lat": 65.90894868566045, "lon": -166.69359874085492, "alt_km": 714.8276516218448, "timestamp": "2025-12-11T13:55:02.551321+00:00", "meta": {"OBJECT_NAME": "IRIDIUM 33 DEB", "OBJECT_ID": "1997-051RD", "EPOCH": "2025-12-11T01:54:48.609792", "MEAN_MOTION": 14.47303294, "ECCENTRICITY": 0.00188533, "INCLINATION": 86.3671, "RA_OF_ASC_NODE": 21.6904, "ARG_OF_PERICENTER": 122.902, "MEAN_ANOMALY": 266.5915, "EPHEMERIS_TYPE": 0, "CLASSIFICATION_TYPE": "U", "NORAD_CAT_ID": 35631, "ELEMENT_SET_NO": 999, "REV_AT_EPOCH": 87173, "BSTAR": 0.000512417, "MEAN_MOTION_DOT": 1.898e-05, "MEAN_MOTION_DDOT": 0}, "tle": {"line1": "1 35631U 97051RD  25345.07972928  .00001898  00000+0  51242-3 0  9995", "line2": "2 35631  86.3671  21.6904 0018853 122.9020 266.5915 14.47303294871731"}}, "geometry": {"type": "Point", "coordinates": [-166.69359874085492, 65.90894868566045]}}, {"type": "Feature", "properties": {"norad_id": 35680, "name": "IRIDIUM 33 DEB", "group": "iridium-33-debris", "lat": -13.133439221486114, "lon": -157.05289325130767, "alt_km": 823.7806261634769, "timestamp": "2025-12-11T13:55:02.551331+00:00", "meta": {"OBJECT_NAME": "IRIDIUM 33 DEB", "OBJECT_ID": "1997-051RJ", "EPOCH": "2025-12-10T20:56:41.216928", "MEAN_MOTION": 14.2086329, "ECCENTRICITY": 0.015045, "INCLINATION": 86.1029, "RA_OF_ASC_NODE": 22.3487, "ARG_OF_PERICENTER": 284.4866, "MEAN_ANOMALY": 255.1489, "EPHEMERIS_TYPE": 0, "CLASSIFICATION_TYPE": "U", "NORAD_CAT_ID": 35680, "ELEMENT_SET_NO": 999, "REV_AT_EPOCH": 60674, "BSTAR": 0.0056946, "MEAN_MOTION_DOT": 0.00013831, "MEAN_MOTION_DDOT": 0}, "tle": {"line1": "1 35680U 97051RJ  25344.87269927  .00013831  00000+0  56946-2 0  9999", "line2": "2 35680  86.1029  22.3487 0150450 284.4866 255.1489 14.20863290606741"}}, "geometry": {"type": "Point", "coordinates": [-157.05289325130767, -13.133439221486114]}}]}